NORAD_CAT_ID,OBJECT_NAME,OBJECT_TYPE,EPOCH,MEAN_MOTION,ECCENTRICITY,INCLINATION,RA_OF_ASC_NODE,ARG_OF_PERICENTER,MEAN_ANOMALY,BSTAR,MEAN_MOTION_DOT,MEAN_MOTION_DDOT,TLE_LINE0,TLE_LINE1,TLE_LINE2,SEMIMAJOR_AXIS,PERIOD,APOGEE,PERIGEE,DECAYED
53552.0,STARLINK-4495,PAYLOAD,2024-04-09 00:55:46,15.08841132,0.0001393,53.2178,324.9745,95.9319,264.1832,-9.1476e-05,-1.744e-05,0.0,0 STARLINK-4495,1 53552U 22101AB  24100.03873700 -.00001744  00000-0 -91476-4 0  9990,2 53552  53.2178 324.9745 0001393  95.9319 264.1832 15.08841132 90686,6917.877,95.437,540.706,538.778,0.0
53552.0,STARLINK-4495,PAYLOAD,2024-04-09 21:35:48,15.08829081,0.000151,53.218,321.1082,88.3062,271.8103,-0.00019483,-3.386e-05,0.0,0 STARLINK-4495,1 53552U 22101AB  24100.89986535 -.00003386  00000-0 -19483-3 0  9996,2 53552  53.2180 321.1082 0001510  88.3062 271.8103 15.08829081 90814,6917.914,95.438,540.823,538.734,0.0
53552.0,STARLINK-4495,PAYLOAD,2024-04-10 07:08:07,15.0883357,0.000166,53.2194,319.3243,90.3325,269.7857,-0.00021299,-3.676e-05,0.0,0 STARLINK-4495,1 53552U 22101AB  24101.29730618 -.00003676  00000-0 -21299-3 0  9990,2 53552  53.2194 319.3243 0001660  90.3325 269.7857 15.08833570 91527,6917.9,95.438,540.913,538.617,0.0
53552.0,STARLINK-4495,PAYLOAD,2024-04-10 21:26:35,15.08839266,0.0001372,53.217,316.6494,92.5836,267.5313,0.00048012,7.361e-05,0.0,0 STARLINK-4495,1 53552U 22101AB  24101.89347135  .00007361  00000-0  48012-3 0  9999,2 53552  53.2170 316.6494 0001372  92.5836 267.5313 15.08839266 91611,6917.883,95.438,540.697,538.798,0.0
53552.0,STARLINK-4495,PAYLOAD,2024-04-11 00:37:22,15.08844381,0.0001385,53.2171,316.0543,91.0996,269.0155,0.00054536,8.403e-05,0.0,0 STARLINK-4495,1 53552U 22101AB  24102.02595067  .00008403  00000-0  54536-3 0  9990,2 53552  53.2171 316.0543 0001385  91.0996 269.0155 15.08844381 90980,6917.867,95.437,540.69,538.774,0.0
53552.0,STARLINK-4495,PAYLOAD,2024-04-11 06:58:54,15.08844936,0.0001302,53.2162,314.8649,91.0596,269.0545,0.00040924,6.232e-05,0.0,0 STARLINK-4495,1 53552U 22101AB  24102.29091072  .00006232  00000-0  40924-3 0  9990,2 53552  53.2162 314.8649 0001302  91.0596 269.0545 15.08844936 91674,6917.865,95.437,540.631,538.83,0.0
53552.0,STARLINK-4495,PAYLOAD,2024-04-11 21:17:23,15.08838418,0.0001529,53.2177,312.1895,93.7927,266.324,0.00015647,2.203e-05,0.0,0 STARLINK-4495,1 53552U 22101AB  24102.88707366  .00002203  00000-0  15647-3 0  9993,2 53552  53.2177 312.1895 0001529  93.7927 266.3240 15.08838418 91111,6917.885,95.438,540.808,538.692,0.0
53552.0,STARLINK-4495,PAYLOAD,2024-04-12 22:43:33,15.08835287,0.0001582,53.2181,307.4313,91.8291,268.2882,0.00030854,4.625e-05,0.0,0 STARLINK-4495,1 53552U 22101AB  24103.94691774  .00004625  00000-0  30854-3 0  9993,2 53552  53.2181 307.4313 0001582  91.8291 268.2882 15.08835287 91271,6917.895,95.438,540.854,538.665,0.0
53552.0,STARLINK-4495,PAYLOAD,2024-04-13 20:58:57,15.08840711,0.0001697,53.219,303.2606,66.092,294.025,0.00011485,1.54e-05,0.0,0 STARLINK-4495,1 53552U 22101AB  24104.87427836  .00001540  00000-0  11485-3 0  9994,2 53552  53.2190 303.2606 0001697  66.0920 294.0250 15.08840711 92062,6917.878,95.438,540.917,538.569,0.0
53552.0,STARLINK-4495,PAYLOAD,2024-04-14 22:25:07,15.08844066,0.0001725,53.2193,298.5027,73.9832,286.135,0.00022231,3.252e-05,0.0,0 STARLINK-4495,1 53552U 22101AB  24105.93412011  .00003252  00000-0  22231-3 0  9994,2 53552  53.2193 298.5027 0001725  73.9832 286.1350 15.08844066 92227,6917.868,95.437,540.926,538.54,0.0
53552.0,STARLINK-4495,PAYLOAD,2024-04-15 19:05:08,15.08848924,0.0001437,53.2178,294.64,80.967,279.1484,0.00019124,2.758e-05,0.0,0 STARLINK-4495,1 53552U 22101AB  24106.79523643  .00002758  00000-0  19124-3 0  9990,2 53552  53.2178 294.6400 0001437  80.9670 279.1484 15.08848924 92351,6917.853,95.437,540.712,538.724,0.0
53552.0,STARLINK-4495,PAYLOAD,2024-04-15 22:15:54,15.08846968,0.0001358,53.2174,294.0463,83.4389,276.6758,0.00029478,4.407e-05,0.0,0 STARLINK-4495,1 53552U 22101AB  24106.92771719  .00004407  00000-0  29478-3 0  9990,2 53552  53.2174 294.0463 0001358  83.4389 276.6758 15.08846968 92371,6917.859,95.437,540.664,538.785,0.0
53552.0,STARLINK-4495,PAYLOAD,2024-04-16 18:55:55,15.08850347,0.0001514,53.2183,290.1812,88.2386,271.8779,0.00013576,1.874e-05,0.0,0 STARLINK-4495,1 53552U 22101AB  24107.78883336  .00001874  00000-0  13576-3 0  9991,2 53552  53.2183 290.1812 0001514  88.2386 271.8779 15.08850347 91858,6917.849,95.437,540.761,538.666,0.0
53552.0,STARLINK-4495,PAYLOAD,2024-04-17 17:11:20,15.08832346,0.0001435,53.2176,286.019,89.0632,271.0524,-7.4427e-05,-1.472e-05,0.0,0 STARLINK-4495,1 53552U 22101AB  24108.71620474 -.00001472  00000-0 -74427-4 0  9996,2 53552  53.2176 286.0190 0001435  89.0632 271.0524 15.08832346 91992,6917.904,95.438,540.762,538.776,0.0
53552.0,STARLINK-4495,PAYLOAD,2024-04-18 10:40:34,15.08833787,0.0001713,53.2181,282.7435,114.9907,245.1263,3.8191e-05,3.2e-06,0.0,0 STARLINK-4495,1 53552U 22101AB  24109.44484651  .00000320  00000-0  38191-4 0  9999,2 53552  53.2181 282.7435 0001713 114.9907 245.1263 15.08833787 92752,6917.899,95.438,540.949,538.579,0.0
53552.0,STARLINK-4495,PAYLOAD,2024-04-18 18:37:29,15.0885393,0.0001385,53.2173,281.2596,92.2696,267.8455,0.00042047,6.413e-05,0.0,0 STARLINK-4495,1 53552U 22101AB  24109.77603807  .00006413  00000-0  42047-3 0  9994,2 53552  53.2173 281.2596 0001385  92.2696 267.8455 15.08853930 92153,6917.838,95.437,540.661,538.745,0.0
53552.0,STARLINK-4495,PAYLOAD,2024-04-19 18:28:17,15.08851889,0.0001683,53.2177,276.8053,71.3677,288.7498,0.00034442,5.199e-05,0.0,0 STARLINK-4495,1 53552U 22101AB  24110.76964199  .00005199  00000-0  34442-3 0  9999,2 53552  53.2177 276.8053 0001683  71.3677 288.7498 15.08851889 92300,6917.844,95.437,540.873,538.545,0.0
53552.0,STARLINK-4495,PAYLOAD,2024-04-19 21:39:02,15.08861219,0.0001639,53.2174,276.2001,79.6248,280.4929,0.00054116,8.34e-05,0.0,0 STARLINK-4495,1 53552U 22101AB  24110.90211725  .00008340  00000-0  54116-3 0  9996,2 53552  53.2174 276.2001 0001639  79.6248 280.4929 15.08861219 92979,6917.816,95.436,540.814,538.547,0.0
53552.0,STARLINK-4495,PAYLOAD,2024-04-20 10:22:07,15.08856775,0.0001415,53.2161,273.8224,123.3705,236.7423,0.00022623,3.316e-05,0.0,0 STARLINK-4495,1 53552U 22101AB  24111.43202678  .00003316  00000-0  22623-3 0  9998,2 53552  53.2161 273.8224 0001415 123.3705 236.7423 15.08856775 93056,6917.829,95.436,540.673,538.715,0.0
53552.0,STARLINK-4495,PAYLOAD,2024-04-20 19:54:27,15.08808727,0.0001327,53.2176,272.0416,110.2666,249.8469,-0.00067735,-0.00011042,0.0,0 STARLINK-4495,1 53552U 22101AB  24111.82948905 -.00011042  00000-0 -67735-3 0  9991,2 53552  53.2176 272.0416 0001327 110.2666 249.8469 15.08808727 92462,6917.976,95.44,540.759,538.923,0.0
53552.0,STARLINK-4495,PAYLOAD,2024-04-21 10:12:56,15.08826758,0.0001255,53.2173,269.37,81.0863,279.0272,-0.00018401,-3.214e-05,0.0,0 STARLINK-4495,1 53552U 22101AB  24112.42565360 -.00003214  00000-0 -18401-3 0  9996,2 53552  53.2173 269.3700 0001255  81.0863 279.0272 15.08826758 93202,6917.921,95.438,540.654,538.918,0.0
53552.0,STARLINK-4495,PAYLOAD,2024-04-21 16:34:29,15.08835204,0.0001789,53.2162,268.184,73.2044,286.9144,0.00024021,3.536e-05,0.0,0 STARLINK-4495,1 53552U 22101AB  24112.69061451  .00003536  00000-0  24021-3 0  9997,2 53552  53.2162 268.1840 0001789  73.2044 286.9144 15.08835204 92590,6917.895,95.438,540.998,538.522,0.0
53552.0,STARLINK-4495,PAYLOAD,2024-04-22 10:03:42,15.08859657,0.0001662,53.2167,264.9099,84.4695,275.6487,0.00084061,0.00013123,0.0,0 STARLINK-4495,1 53552U 22101AB  24113.41924741  .00013123  00000-0  84061-3 0  9991,2 53552  53.2167 264.9099 0001662  84.4695 275.6487 15.08859657 92707,6917.82,95.436,540.835,538.536,0.0
53552.0,STARLINK-4495,PAYLOAD,2024-04-22 16:25:15,15.08873845,0.0001501,53.2169,263.7207,84.5634,275.5529,0.00086297,0.00013486,0.0,0 STARLINK-4495,1 53552U 22101AB  24113.68420147  .00013486  00000-0  86297-3 0  9996,2 53552  53.2169 263.7207 0001501  84.5634 275.5529 15.08873845 93390,6917.777,95.435,540.68,538.604,0.0
53552.0,STARLINK-4495,PAYLOAD,2024-04-23 13:05:16,15.08842788,0.0001531,53.218,259.8542,89.7316,270.3851,0.00018749,2.697e-05,0.0,0 STARLINK-4495,1 53552U 22101AB  24114.54532521  .00002697  00000-0  18749-3 0  9991,2 53552  53.2180 259.8542 0001531  89.7316 270.3851 15.08842788 92873,6917.872,95.437,540.796,538.678,0.0
53552.0,STARLINK-4495,PAYLOAD,2024-04-23 14:40:39,15.08842184,0.0001557,53.2178,259.5571,96.9308,263.1861,0.00017346,2.474e-05,0.0,0 STARLINK-4495,1 53552U 22101AB  24114.61156500  .00002474  00000-0  17346-3 0  9993,2 53552  53.2178 259.5571 0001557  96.9308 263.1861 15.08842184 93533,6917.874,95.437,540.816,538.662,0.0
53552.0,STARLINK-4495,PAYLOAD,2024-04-23 19:26:48,15.08847639,0.0001295,53.2164,258.6601,79.9138,280.2,0.00032088,4.824e-05,0.0,0 STARLINK-4495,1 53552U 22101AB  24114.81028432  .00004824  00000-0  32088-3 0  9998,2 53552  53.2164 258.6601 0001295  79.9138 280.2000 15.08847639 93561,6917.857,95.437,540.618,538.826,0.0
53552.0,STARLINK-4495,PAYLOAD,2024-04-24 12:56:03,15.08837242,0.0001499,53.2173,255.3832,84.0029,276.1134,0.00024981,3.69e-05,0.0,0 STARLINK-4495,1 53552U 22101AB  24115.53892933  .00003690  00000-0  24981-3 0  9996,2 53552  53.2173 255.3832 0001499  84.0029 276.1134 15.08837242 93025,6917.889,95.438,540.791,538.717,0.0
53552.0,STARLINK-4495,PAYLOAD,2024-04-24 16:06:49,15.08844629,0.000162,53.2188,254.7915,95.6434,264.4743,0.00027606,4.109e-05,0.0,0 STARLINK-4495,1 53552U 22101AB  24115.67140705  .00004109  00000-0  27606-3 0  9997,2 53552  53.2188 254.7915 0001620  95.6434 264.4743 15.08844629 93696,6917.866,95.437,540.852,538.611,0.0
53552.0,STARLINK-4495,PAYLOAD,2024-04-25 14:22:14,15.08835567,0.0001478,53.2176,250.6251,81.2168,278.8991,0.00012435,1.691e-05,0.0,0 STARLINK-4495,1 53552U 22101AB  24116.59877427  .00001691  00000-0  12435-3 0  9994,2 53552  53.2176 250.6251 0001478  81.2168 278.8991 15.08835567 93838,6917.894,95.438,540.781,538.736,0.0
